IRIDIUM 119             
1 42959U 17061E   24173.53410531  .00000028  00000+0  28524-5 0  9998
2 42959  86.3970 328.4980 0001985  98.3698 261.7722 14.34217494350806
IRIDIUM 107             
1 42960U 17061F   24173.48336520  .00000372  00000+0  12563-3 0  9995
2 42960  86.3970 328.5361 0002130  98.1318 262.0120 14.34217513350800
IRIDIUM 132             
1 42961U 17061G   24173.48970769  .00000032  00000+0  45252-5 0  9991
2 42961  86.3969 328.5181 0002292  99.8349 260.3106 14.34217720350805
IRIDIUM 136             
1 42962U 17061H   24173.52141744  .00000242  00000+0  79254-4 0  9991
2 42962  86.3969 328.5080 0001847  95.9222 264.2184 14.34219324350829
IRIDIUM 139             
1 42963U 17061J   24173.38822509  .00000265  00000+0  87580-4 0  9997
2 42963  86.3972 328.6140 0002206 102.0452 258.0991 14.34219345350816
IRIDIUM 125             
1 42964U 17061K   24173.51507682  .00000075  00000+0  19694-4 0  9995
2 42964  86.3972 328.6087 0001856 103.3205 256.8198 14.34217690350846
IRIDIUM 135             
1 43070U 17083A   24173.34966667  .00000164  00000+0  51643-4 0  9990
2 43070  86.3965 265.3274 0002529  88.9375 271.2111 14.34218536340111
